ORBCOMM FM33            
1 25983U 99065D   25047.91480393  .00002655  00000+0  88894-3 0  9998
2 25983  45.0269 210.5877 0009648 177.6232 182.4664 14.39460501318736
ORBCOMM FM36            
1 25984U 99065E   25048.06839907  .00002525  00000+0  88102-3 0  9993
2 25984  45.0392 299.9388 0003918  51.0735 309.0463 14.37570638317722
ORBCOMM FM35            
1 25985U 99065F   25047.96454120  .00001827  00000+0  66309-3 0  9991
2 25985  45.0406 304.5394 0002848 142.3951 217.7096 14.36626695317499
ORBCOMM FM34            
1 25986U 99065G   25047.86409646  .00002033  00000+0  73164-3 0  9991
2 25986  45.0392 305.5225 0003860  86.3447 273.7842 14.36673363317596
ORBCOMM FM38            
1 33060U 08031A   25048.04978508  .00005058  00000+0  68198-3 0  9996
2 33060  48.4394 167.4551 0006408 243.7874 116.2383 14.80414409896932
ORBCOMM FM41            
1 33061U 08031B   25048.57840529  .00004467  00000+0  61091-3 0  9994
2 33061  48.4428 172.3206 0005542 233.2186 221.0673 14.80043222896951
ORBCOMM FM29            
1 33062U 08031C   25048.11091178  .00004737  00000+0  64526-3 0  9999
2 33062  48.4379 182.4806 0007278 228.5848 301.4228 14.80089925896741
ORBCOMM FM39            
1 33063U 08031D   25048.13105342  .00004350  00000+0  61367-3 0  9992
2 33063  48.4389 205.3825 0007903 203.3113 156.7444 14.78756278896447
